{"type": "FeatureCollection", "features": [ {"type": "Feature", "properties": {"norad_id": 42969, "name": "SENTINEL-5P", "group": "resource", "lat": 21.394884406790485, "lon": -75.74085998213201, "alt_km": 826.4586914366091, "timestamp": "2025-12-15T04:01:20.100308+00:00", "meta": {"OBJECT_NAME": "SENTINEL-5P", "OBJECT_ID": "2017-064A", "EPOCH": "2025-12-14T07:37:13.945728", "MEAN_MOTION": 14.19518068, "ECCENTRICITY": 9.775e-05, "INCLINATION": 98.7785, "RA_OF_ASC_NODE": 286.8876, "ARG_OF_PERICENTER": 88.989, "MEAN_ANOMALY": 271.1398, "EPHEMERIS_TYPE": 0, "CLASSIFICATION_TYPE": "U", "NORAD_CAT_ID": 42969, "ELEMENT_SET_NO": 999, "REV_AT_EPOCH": 42333, "BSTAR": 7.790004e-05, "MEAN_MOTION_DOT": 1.2e-06, "MEAN_MOTION_DDOT": 0}, "tle": {"line1": "1 42969U 17064A   25348.31752252  .00000120  00000+0  77900-4 0  9996", "line2": "2 42969  98.7785 286.8876 0000977  88.9890 271.1398 14.19518068423335"}}, "geometry": {"type": "Point", "coordinates": [-75.74085998213201, 21.394884406790485]}}, {"type": "Feature", "properties": {"norad_id": 42987, "name": "SKYSAT-C11", "group": "resource", "lat": 7.585095122832493, "lon": -52.28736357714092, "alt_km": 425.7069727028211, "timestamp": "2025-12-15T04:01:20.100318+00:00", "meta": {"OBJECT_NAME": "SKYSAT-C11", "OBJECT_ID": "2017-068A", "EPOCH": "2025-12-14T08:39:29.706336", "MEAN_MOTION": 15.47532802, "ECCENTRICITY": 0.00010667, "INCLINATION": 97.4136, "RA_OF_ASC_NODE": 125.8924, "ARG_OF_PERICENTER": 101.5885, "MEAN_ANOMALY": 258.5485, "EPHEMERIS_TYPE": 0, "CLASSIFICATION_TYPE": "U", "NORAD_CAT_ID": 42987, "ELEMENT_SET_NO": 999, "REV_AT_EPOCH": 45456, "BSTAR": 0.00047454411, "MEAN_MOTION_DOT": 0.0002435, "MEAN_MOTION_DDOT": 0}, "tle": {"line1": "1 42987U 17068A   25348.36076049  .00024350  00000+0  47454-3 0  9999", "line2": "2 42987  97.4136 125.8924 0001066 101.5885 258.5485 15.47532802454562"}}, "geometry": {"type": "Point", "coordinates": [-52.28736357714092, 7.585095122832493]}}, {"type": "Feature", "properties": {"norad_id": 42988, "name": "SKYSAT-C10", "group": "resource", "lat": 60.830922860301534, "lon": -46.463053052906176, "alt_km": 460.1576207716462, "timestamp": "2025-12-15T04:01:20.100329+00:00", "meta": {"OBJECT_NAME": "SKYSAT-C10", "OBJECT_ID": "2017-068B", "EPOCH": "2025-12-14T07:07:52.470048", "MEAN_MOTION": 15.32107313, "ECCENTRICITY": 0.00054039, "INCLINATION": 97.4254, "RA_OF_ASC_NODE": 119.1519, "ARG_OF_PERICENTER": 99.1734, "MEAN_ANOMALY": 261.0119, "EPHEMERIS_TYPE": 0, "CLASSIFICATION_TYPE": "U", "NORAD_CAT_ID": 42988, "ELEMENT_SET_NO": 999, "REV_AT_EPOCH": 45403, "BSTAR": 0.00040527085, "MEAN_MOTION_DOT": 0.00012497, "MEAN_MOTION_DDOT": 0}, "tle": {"line1": "1 42988U 17068B   25348.29713507  .00012497  00000+0  40527-3 0  9992", "line2": "2 42988  97.4254 119.1519 0005403  99.1734 261.0119 15.32107313454038"}}, "geometry": {"type": "Point", "coordinates": [-46.463053052906176, 60.830922860301534]}}, {"type": "Feature", "properties": {"norad_id": 42989, "name": "SKYSAT-C9", "group": "resource", "lat": 0.36086481819818245, "lon": 119.39291220029993, "alt_km": 459.2214467272224, "timestamp": "2025-12-15T04:01:20.100339+00:00", "meta": {"OBJECT_NAME": "SKYSAT-C9", "OBJECT_ID": "2017-068C", "EPOCH": "2025-12-14T07:41:47.572800", "MEAN_MOTION": 15.36103456, "ECCENTRICITY": 0.00106399, "INCLINATION": 97.4183, "RA_OF_ASC_NODE": 118.5865, "ARG_OF_PERICENTER": 82.3903, "MEAN_ANOMALY": 277.8549, "EPHEMERIS_TYPE": 0, "CLASSIFICATION_TYPE": "U", "NORAD_CAT_ID": 42989, "ELEMENT_SET_NO": 999, "REV_AT_EPOCH": 45432, "BSTAR": 0.00043035623, "MEAN_MOTION_DOT": 0.00015092, "MEAN_MOTION_DDOT": 0}, "tle": {"line1": "1 42989U 17068C   25348.32068950  .00015092  00000+0  43036-3 0  9994", "line2": "2 42989  97.4183 118.5865 0010639  82.3903 277.8549 15.36103456454328"}}, "geometry": {"type": "Point", "coordinates": [119.39291220029993, 0.36086481819818245]}}, {"type": "Feature", "properties": {"norad_id": 42990, "name": "SKYSAT-C8", "group": "resource", "lat": -55.29877233306611, "lon": 130.0368671641199, "alt_km": 473.1355432962955, "timestamp": "2025-12-15T04:01:20.100349+00:00", "meta": {"OBJECT_NAME": "SKYSAT-C8", "OBJECT_ID": "2017-068D", "EPOCH": "2025-12-14T07:54:01.539936", "MEAN_MOTION": 15.32967524, "ECCENTRICITY": 0.0001497, "INCLINATION": 97.4275, "RA_OF_ASC_NODE": 118.3358, "ARG_OF_PERICENTER": 341.2661, "MEAN_ANOMALY": 18.8525, "EPHEMERIS_TYPE": 0, "CLASSIFICATION_TYPE": "U", "NORAD_CAT_ID": 42990, "ELEMENT_SET_NO": 999, "REV_AT_EPOCH": 45395, "BSTAR": 0.00041887786, "MEAN_MOTION_DOT": 0.00013269, "MEAN_MOTION_DDOT": 0}, "tle": {"line1": "1 42990U 17068D   25348.32918449  .00013269  00000+0  41888-3 0  9990", "line2": "2 42990  97.4275 118.3358 0001497 341.2661  18.8525 15.32967524453952"}}, "geometry": {"type": "Point", "coordinates": [130.0368671641199, -55.29877233306611]}}, {"type": "Feature", "properties": {"norad_id": 42991, "name": "SKYSAT-C7", "group": "resource", "lat": 25.277156378523664, "lon": -56.25091818499837, "alt_km": 469.38100153034156, "timestamp": "2025-12-15T04:01:20.100360+00:00", "meta": {"OBJECT_NAME": "SKYSAT-C7", "OBJECT_ID": "2017-068E", "EPOCH": "2025-12-14T08:32:41.774784", "MEAN_MOTION": 15.32371462, "ECCENTRICITY": 0.00075719, "INCLINATION": 97.4281, "RA_OF_ASC_NODE": 119.4027, "ARG_OF_PERICENTER": 51.8914, "MEAN_ANOMALY": 308.3009, "EPHEMERIS_TYPE": 0, "CLASSIFICATION_TYPE": "U", "NORAD_CAT_ID": 42991, "ELEMENT_SET_NO": 999, "REV_AT_EPOCH": 45402, "BSTAR": 0.00038722005, "MEAN_MOTION_DOT": 0.0001204, "MEAN_MOTION_DDOT": 0}, "tle": {"line1": "1 42991U 17068E   25348.35603906  .00012040  00000+0  38722-3 0  9992", "line2": "2 42991  97.4281 119.4027 0007571  51.8914 308.3009 15.32371462454022"}}, "geometry": {"type": "Point", "coordinates": [-56.25091818499837, 25.277156378523664]}}, {"type": "Feature", "properties": {"norad_id": 42992, "name": "SKYSAT-C6", "group": "resource", "lat": -80.40158621259184, "lon": -109.86866131131016, "alt_km": 482.02889056893764, "timestamp": "2025-12-15T04:01:20.100370+00:00", "meta": {"OBJECT_NAME": "SKYSAT-C6", "OBJECT_ID": "2017-068F", "EPOCH": "2025-12-14T08:03:24.521472", "MEAN_MOTION": 15.31531976, "ECCENTRICITY": 0.00051445, "INCLINATION": 97.4316, "RA_OF_ASC_NODE": 119.8195, "ARG_OF_PERICENTER": 77.8804, "MEAN_ANOMALY": 282.3014, "EPHEMERIS_TYPE": 0, "CLASSIFICATION_TYPE": "U", "NORAD_CAT_ID": 42992, "ELEMENT_SET_NO": 999, "REV_AT_EPOCH": 45400, "BSTAR": 0.00039035706, "MEAN_MOTION_DOT": 0.00011818, "MEAN_MOTION_DDOT": 0}, "tle": {"line1": "1 42992U 17068F   25348.33570048  .00011818  00000+0  39036-3 0  9992", "line2": "2 42992  97.4316 119.8195 0005144  77.8804 282.3014 15.31531976454004"}}, "geometry": {"type": "Point", "coordinates": [-109.86866131131016, -80.40158621259184]}}, {"type": "Feature", "properties": {"norad_id": 43111, "name": "CARTOSAT-2F", "group": "resource", "lat": -80.21764519184099, "lon": 177.55674477220103, "alt_km": 515.7652778795273, "timestamp": "2025-12-15T04:01:20.100380+00:00", "meta": {"OBJECT_NAME": "CARTOSAT-2F", "OBJECT_ID": "2018-004A", "EPOCH": "2025-12-14T07:53:49.945920", "MEAN_MOTION": 15.19296067, "ECCENTRICITY": 0.00011397, "INCLINATION": 97.4319, "RA_OF_ASC_NODE": 45.9412, "ARG_OF_PERICENTER": 140.878, "MEAN_ANOMALY": 219.2537, "EPHEMERIS_TYPE": 0, "CLASSIFICATION_TYPE": "U", "NORAD_CAT_ID": 43111, "ELEMENT_SET_NO": 999, "REV_AT_EPOCH": 43926, "BSTAR": 0.00021489503, "MEAN_MOTION_DOT": 4.467e-05, "MEAN_MOTION_DDOT": 0}, "tle": {"line1": "1 43111U 18004A   25348.32905030  .00004467  00000+0  21490-3 0  9996", "line2": "2 43111  97.4319  45.9412 0001139 140.8780 219.2537 15.19296067439261"}}, "geometry": {"type": "Point", "coordinates": [177.55674477220103, -80.21764519184099]}}, {"type": "Feature", "properties": {"norad_id": 43259, "name": "GAOFEN-1 02", "group": "resource", "lat": 15.725289421890006, "lon": 44.66523982784711, "alt_km": 642.6432834439238, "timestamp": "2025-12-15T04:01:20.100391+00:00", "meta": {"OBJECT_NAME": "GAOFEN-1 02", "OBJECT_ID": "2018-031A", "EPOCH": "2025-12-14T08:25:55.578144", "MEAN_MOTION": 14.76423211, "ECCENTRICITY": 0.0001836, "INCLINATION": 98.0806, "RA_OF_ASC_NODE": 46.1413, "ARG_OF_PERICENTER": 210.1382, "MEAN_ANOMALY": 149.9722, "EPHEMERIS_TYPE": 0, "CLASSIFICATION_TYPE": "U", "NORAD_CAT_ID": 43259, "ELEMENT_SET_NO": 999, "REV_AT_EPOCH": 41542, "BSTAR": 0.00029399536, "MEAN_MOTION_DOT": 1.992e-05, "MEAN_MOTION_DDOT": 0}, "tle": {"line1": "1 43259U 18031A   25348.35133771  .00001992  00000+0  29400-3 0  9996", "line2": "2 43259  98.0806  46.1413 0001836 210.1382 149.9722 14.76423211415421"}}, "geometry": {"type": "Point", "coordinates": [44.66523982784711, 15.725289421890006]}}, {"type": "Feature", "properties": {"norad_id": 43260, "name": "GAOFEN-1 03", "group": "resource", "lat": 47.94024557761925, "lon": -124.10737521373406, "alt_km": 637.6358906014466, "timestamp": "2025-12-15T04:01:20.100402+00:00", "meta": {"OBJECT_NAME": "GAOFEN-1 03", "OBJECT_ID": "2018-031B", "EPOCH": "2025-12-14T07:54:40.165056", "MEAN_MOTION": 14.76440973, "ECCENTRICITY": 0.0001897, "INCLINATION": 98.0797, "RA_OF_ASC_NODE": 45.9963, "ARG_OF_PERICENTER": 314.6184, "MEAN_ANOMALY": 45.487, "EPHEMERIS_TYPE": 0, "CLASSIFICATION_TYPE": "U", "NORAD_CAT_ID": 43260, "ELEMENT_SET_NO": 999, "REV_AT_EPOCH": 41541, "BSTAR": 0.00019194484, "MEAN_MOTION_DOT": 1.283e-05, "MEAN_MOTION_DDOT": 0}, "tle": {"line1": "1 43260U 18031B   25348.32963154  .00001283  00000+0  19194-3 0  9993", "line2": "2 43260  98.0797  45.9963 0001897 314.6184  45.4870 14.76440973415413"}}, "geometry": {"type": "Point", "coordinates": [-124.10737521373406, 47.94024557761925]}}]}